{"type": "FeatureCollection", "features": [ {"type": "Feature", "properties": {"norad_id": 66913, "name": "2025-284A", "group": "last-30-days", "lat": 60.61344380861757, "lon": 152.4258605569761, "alt_km": 508.5903542749138, "timestamp": "2025-12-08T15:42:48.538194+00:00", "meta": {"OBJECT_NAME": "2025-284A", "OBJECT_ID": "2025-284A", "EPOCH": "2025-12-05T19:30:25.528608", "MEAN_MOTION": 15.20033669, "ECCENTRICITY": 0.00128266, "INCLINATION": 80.4023, "RA_OF_ASC_NODE": 138.5488, "ARG_OF_PERICENTER": 252.3263, "MEAN_ANOMALY": 107.6565, "EPHEMERIS_TYPE": 0, "CLASSIFICATION_TYPE": "U", "NORAD_CAT_ID": 66913, "ELEMENT_SET_NO": 999, "REV_AT_EPOCH": 7, "BSTAR": 0.00014555981, "MEAN_MOTION_DOT": 3.163e-05, "MEAN_MOTION_DDOT": 0}, "tle": {"line1": "1 66913U 25284A   25339.81279547  .00003163  00000+0  14556-3 0  9997", "line2": "2 66913  80.4023 138.5488 0012826 252.3263 107.6565 15.20033669    75"}}, "geometry": {"type": "Point", "coordinates": [152.4258605569761, 60.61344380861757]}}, {"type": "Feature", "properties": {"norad_id": 66915, "name": "HULIANWANG DIGUI 14A", "group": "last-30-days", "lat": 24.647157263120945, "lon": 156.56458530700212, "alt_km": 875.419757558835, "timestamp": "2025-12-08T15:42:48.538205+00:00", "meta": {"OBJECT_NAME": "HULIANWANG DIGUI 14A", "OBJECT_ID": "2025-285A", "EPOCH": "2025-12-06T08:58:45.410016", "MEAN_MOTION": 14.06225102, "ECCENTRICITY": 0.00087698, "INCLINATION": 49.9887, "RA_OF_ASC_NODE": 143.2276, "ARG_OF_PERICENTER": 217.1051, "MEAN_ANOMALY": 142.9249, "EPHEMERIS_TYPE": 0, "CLASSIFICATION_TYPE": "U", "NORAD_CAT_ID": 66915, "ELEMENT_SET_NO": 999, "REV_AT_EPOCH": 1, "BSTAR": 1.8511052e-05, "MEAN_MOTION_DOT": -1.22e-06, "MEAN_MOTION_DDOT": 0}, "tle": {"line1": "1 66915U 25285A   25340.37413669 -.00000122  00000+0  18511-4 0  9997", "line2": "2 66915  49.9887 143.2276 0008769 217.1051 142.9249 14.06225102    11"}}, "geometry": {"type": "Point", "coordinates": [156.56458530700212, 24.647157263120945]}}, {"type": "Feature", "properties": {"norad_id": 66916, "name": "HULIANWANG DIGUI 14B", "group": "last-30-days", "lat": 23.04680354049772, "lon": 154.87630944580363, "alt_km": 873.3698078947427, "timestamp": "2025-12-08T15:42:48.538215+00:00", "meta": {"OBJECT_NAME": "HULIANWANG DIGUI 14B", "OBJECT_ID": "2025-285B", "EPOCH": "2025-12-06T12:23:28.538592", "MEAN_MOTION": 14.0595389, "ECCENTRICITY": 0.0008093, "INCLINATION": 50.0119, "RA_OF_ASC_NODE": 142.6984, "ARG_OF_PERICENTER": 262.9615, "MEAN_ANOMALY": 97.037, "EPHEMERIS_TYPE": 0, "CLASSIFICATION_TYPE": "U", "NORAD_CAT_ID": 66916, "ELEMENT_SET_NO": 999, "REV_AT_EPOCH": 3, "BSTAR": 1.7671e-05, "MEAN_MOTION_DOT": -1.23e-06, "MEAN_MOTION_DDOT": 0}, "tle": {"line1": "1 66916U 25285B   25340.51630253 -.00000123  00000+0  17671-4 0  9991", "line2": "2 66916  50.0119 142.6984 0008093 262.9615  97.0370 14.05953890    34"}}, "geometry": {"type": "Point", "coordinates": [154.87630944580363, 23.04680354049772]}}, {"type": "Feature", "properties": {"norad_id": 66917, "name": "HULIANWANG DIGUI 14C", "group": "last-30-days", "lat": 22.79496440893355, "lon": 154.6039557364615, "alt_km": 874.3513109966852, "timestamp": "2025-12-08T15:42:48.538225+00:00", "meta": {"OBJECT_NAME": "HULIANWANG DIGUI 14C", "OBJECT_ID": "2025-285C", "EPOCH": "2025-12-08T08:44:38.755680", "MEAN_MOTION": 14.05578781, "ECCENTRICITY": 0.0007507, "INCLINATION": 50.0019, "RA_OF_ASC_NODE": 135.1297, "ARG_OF_PERICENTER": 270.467, "MEAN_ANOMALY": 89.5375, "EPHEMERIS_TYPE": 0, "CLASSIFICATION_TYPE": "U", "NORAD_CAT_ID": 66917, "ELEMENT_SET_NO": 999, "REV_AT_EPOCH": 29, "BSTAR": -6.4208e-06, "MEAN_MOTION_DOT": -1.63e-06, "MEAN_MOTION_DDOT": 0}, "tle": {"line1": "1 66917U 25285C   25342.36433745 -.00000163  00000+0 -64208-5 0  9998", "line2": "2 66917  50.0019 135.1297 0007507 270.4670  89.5375 14.05578781   293"}}, "geometry": {"type": "Point", "coordinates": [154.6039557364615, 22.79496440893355]}}, {"type": "Feature", "properties": {"norad_id": 66918, "name": "HULIANWANG DIGUI 14D", "group": "last-30-days", "lat": 23.77084174141223, "lon": 155.64584674262434, "alt_km": 873.2293510587624, "timestamp": "2025-12-08T15:42:48.538235+00:00", "meta": {"OBJECT_NAME": "HULIANWANG DIGUI 14D", "OBJECT_ID": "2025-285D", "EPOCH": "2025-12-08T10:26:43.431360", "MEAN_MOTION": 14.05959486, "ECCENTRICITY": 0.0008191, "INCLINATION": 50.0064, "RA_OF_ASC_NODE": 134.8446, "ARG_OF_PERICENTER": 270.94, "MEAN_ANOMALY": 89.0567, "EPHEMERIS_TYPE": 0, "CLASSIFICATION_TYPE": "U", "NORAD_CAT_ID": 66918, "ELEMENT_SET_NO": 999, "REV_AT_EPOCH": 30, "BSTAR": 1.1296e-05, "MEAN_MOTION_DOT": -1.34e-06, "MEAN_MOTION_DDOT": 0}, "tle": {"line1": "1 66918U 25285D   25342.43522490 -.00000134  00000+0  11296-4 0  9998", "line2": "2 66918  50.0064 134.8446 0008191 270.9400  89.0567 14.05959486   307"}}, "geometry": {"type": "Point", "coordinates": [155.64584674262434, 23.77084174141223]}}, {"type": "Feature", "properties": {"norad_id": 66919, "name": "HULIANWANG DIGUI 14E", "group": "last-30-days", "lat": 24.451487696705712, "lon": 156.38175307360905, "alt_km": 871.7081385165375, "timestamp": "2025-12-08T15:42:48.538246+00:00", "meta": {"OBJECT_NAME": "HULIANWANG DIGUI 14E", "OBJECT_ID": "2025-285E", "EPOCH": "2025-12-07T22:30:08.756640", "MEAN_MOTION": 14.06180364, "ECCENTRICITY": 0.00078534, "INCLINATION": 50.0053, "RA_OF_ASC_NODE": 136.8752, "ARG_OF_PERICENTER": 276.2161, "MEAN_ANOMALY": 83.7849, "EPHEMERIS_TYPE": 0, "CLASSIFICATION_TYPE": "U", "NORAD_CAT_ID": 66919, "ELEMENT_SET_NO": 999, "REV_AT_EPOCH": 23, "BSTAR": -1.3856152e-05, "MEAN_MOTION_DOT": -1.75e-06, "MEAN_MOTION_DDOT": 0}, "tle": {"line1": "1 66919U 25285E   25341.93760135 -.00000175  00000+0 -13856-4 0  9993", "line2": "2 66919  50.0053 136.8752 0007853 276.2161  83.7849 14.06180364   233"}}, "geometry": {"type": "Point", "coordinates": [156.38175307360905, 24.451487696705712]}}, {"type": "Feature", "properties": {"norad_id": 66920, "name": "HULIANWANG DIGUI 14F", "group": "last-30-days", "lat": 24.947568252879893, "lon": 156.92860430596397, "alt_km": 871.2644523482295, "timestamp": "2025-12-08T15:42:48.538262+00:00", "meta": {"OBJECT_NAME": "HULIANWANG DIGUI 14F", "OBJECT_ID": "2025-285F", "EPOCH": "2025-12-07T22:29:57.568704", "MEAN_MOTION": 14.06197734, "ECCENTRICITY": 0.0005825, "INCLINATION": 50.0078, "RA_OF_ASC_NODE": 136.8777, "ARG_OF_PERICENTER": 272.4455, "MEAN_ANOMALY": 87.5784, "EPHEMERIS_TYPE": 0, "CLASSIFICATION_TYPE": "U", "NORAD_CAT_ID": 66920, "ELEMENT_SET_NO": 999, "REV_AT_EPOCH": 23, "BSTAR": 0.00011290179, "MEAN_MOTION_DOT": 3.4e-07, "MEAN_MOTION_DDOT": 0}, "tle": {"line1": "1 66920U 25285F   25341.93747186  .00000034  00000+0  11290-3 0  9997", "line2": "2 66920  50.0078 136.8777 0005825 272.4455  87.5784 14.06197734   239"}}, "geometry": {"type": "Point", "coordinates": [156.92860430596397, 24.947568252879893]}}, {"type": "Feature", "properties": {"norad_id": 66921, "name": "HULIANWANG DIGUI 14G", "group": "last-30-days", "lat": 24.58449363146254, "lon": 156.52757840659615, "alt_km": 872.2115860955855, "timestamp": "2025-12-08T15:42:48.538274+00:00", "meta": {"OBJECT_NAME": "HULIANWANG DIGUI 14G", "OBJECT_ID": "2025-285G", "EPOCH": "2025-12-08T08:44:01.536288", "MEAN_MOTION": 14.05883004, "ECCENTRICITY": 0.0006916, "INCLINATION": 50.0115, "RA_OF_ASC_NODE": 135.1359, "ARG_OF_PERICENTER": 280.588, "MEAN_ANOMALY": 79.4246, "EPHEMERIS_TYPE": 0, "CLASSIFICATION_TYPE": "U", "NORAD_CAT_ID": 66921, "ELEMENT_SET_NO": 999, "REV_AT_EPOCH": 29, "BSTAR": 1.2065e-05, "MEAN_MOTION_DOT": -1.32e-06, "MEAN_MOTION_DDOT": 0}, "tle": {"line1": "1 66921U 25285G   25342.36390667 -.00000132  00000+0  12065-4 0  9996", "line2": "2 66921  50.0115 135.1359 0006916 280.5880  79.4246 14.05883004   294"}}, "geometry": {"type": "Point", "coordinates": [156.52757840659615, 24.58449363146254]}}, {"type": "Feature", "properties": {"norad_id": 66922, "name": "HULIANWANG DIGUI 14H", "group": "last-30-days", "lat": 25.237601341317326, "lon": 157.24999122396417, "alt_km": 871.2584789622806, "timestamp": "2025-12-08T15:42:48.538286+00:00", "meta": {"OBJECT_NAME": "HULIANWANG DIGUI 14H", "OBJECT_ID": "2025-285H", "EPOCH": "2025-12-08T08:43:47.873856", "MEAN_MOTION": 14.05998696, "ECCENTRICITY": 0.0006903, "INCLINATION": 50.0079, "RA_OF_ASC_NODE": 135.1325, "ARG_OF_PERICENTER": 286.9247, "MEAN_ANOMALY": 73.0902, "EPHEMERIS_TYPE": 0, "CLASSIFICATION_TYPE": "U", "NORAD_CAT_ID": 66922, "ELEMENT_SET_NO": 999, "REV_AT_EPOCH": 29, "BSTAR": -1.047e-05, "MEAN_MOTION_DOT": -1.7e-06, "MEAN_MOTION_DDOT": 0}, "tle": {"line1": "1 66922U 25285H   25342.36374854 -.00000170  00000+0 -10470-4 0  9998", "line2": "2 66922  50.0079 135.1325 0006903 286.9247  73.0902 14.05998696   293"}}, "geometry": {"type": "Point", "coordinates": [157.24999122396417, 25.237601341317326]}}, {"type": "Feature", "properties": {"norad_id": 66923, "name": "HULIANWANG DIGUI 14J", "group": "last-30-days", "lat": 26.382299774607144, "lon": 158.54431889756512, "alt_km": 869.3980390422848, "timestamp": "2025-12-08T15:42:48.538301+00:00", "meta": {"OBJECT_NAME": "HULIANWANG DIGUI 14J", "OBJECT_ID": "2025-285J", "EPOCH": "2025-12-07T22:29:36.786048", "MEAN_MOTION": 14.06515715, "ECCENTRICITY": 0.00053876, "INCLINATION": 50.0075, "RA_OF_ASC_NODE": 136.8754, "ARG_OF_PERICENTER": 280.8946, "MEAN_ANOMALY": 79.1354, "EPHEMERIS_TYPE": 0, "CLASSIFICATION_TYPE": "U", "NORAD_CAT_ID": 66923, "ELEMENT_SET_NO": 999, "REV_AT_EPOCH": 23, "BSTAR": -4.7305e-07, "MEAN_MOTION_DOT": -1.53e-06, "MEAN_MOTION_DDOT": 0}, "tle": {"line1": "1 66923U 25285J   25341.93723132 -.00000153  00000+0 -47305-6 0  9998", "line2": "2 66923  50.0075 136.8754 0005387 280.8946  79.1354 14.06515715   238"}}, "geometry": {"type": "Point", "coordinates": [158.54431889756512, 26.382299774607144]}}]}